OBJECT_NAME,OBJECT_ID,EPOCH,MEAN_MOTION,ECCENTRICITY,INCLINATION,RA_OF_ASC_NODE,ARG_OF_PERICENTER,MEAN_ANOMALY,EPHEMERIS_TYPE,CLASSIFICATION_TYPE,NORAD_CAT_ID,ELEMENT_SET_NO,REV_AT_EPOCH,BSTAR,MEAN_MOTION_DOT,MEAN_MOTION_DDOT
STARLINK-5837,2023-058AF,2026-07-16T11:00:44.716896,15.05653210,.00019444,97.2849,194.9681,97.3198,262.8251,0,U,56346,999,17750,.29310182E-4,.367E-5,0
STARLINK-5829,2023-058AG,2026-07-16T10:58:41.991744,15.05653900,.00019815,97.2852,196.0385,93.0191,267.1263,0,U,56347,999,17757,-.603033E-6,-.65E-6,0
STARLINK-5888,2023-058AH,2026-07-16T10:48:46.132416,15.05654938,.0001993,97.2846,194.8271,94.6209,265.5246,0,U,56348,999,17749,.92097E-6,-.43E-6,0
STARLINK-5887,2023-058AJ,2026-07-16T11:08:42.925344,15.05654418,.00018546,97.2841,194.9609,93.3561,266.7879,0,U,56349,999,17750,.16546016E-4,.183E-5,0
STARLINK-5886,2023-058AK,2026-07-16T10:46:44.513184,15.05652310,.00021903,97.2845,196.0503,91.6981,268.4498,0,U,56350,999,17757,-.12819134E-4,-.241E-5,0
STARLINK-5891,2023-058AL,2026-07-16T09:46:55.559136,15.05652475,.00019707,97.2832,195.9514,92.0514,268.0939,0,U,56351,999,17756,.60375756E-4,.815E-5,0
STARLINK-5885,2023-058AM,2026-07-16T11:56:34.076832,15.05651391,.00020139,97.2822,194.9145,85.8092,274.3366,0,U,56352,999,17750,.564593E-5,.25E-6,0
STARLINK-5874,2023-058AN,2026-07-16T10:24:50.735520,15.05654310,.00018146,97.2833,194.8516,98.7139,261.4294,0,U,56353,999,17749,-.1170559E-4,-.225E-5,0
STARLINK-5877,2023-058AP,2026-07-16T11:50:31.794720,15.05659714,.00012386,97.2825,195.9868,127.4555,232.6785,0,U,56354,999,17757,-.18038434E-4,-.317E-5,0
STARLINK-5533,2023-058AQ,2026-07-16T14:00:01.999872,15.78503993,.00009361,97.5225,200.2652,109.0249,234.2846,0,U,56355,999,592,.24851148E-2,.451946E-2,0
STARLINK-5535,2023-058AR,2026-07-16T11:18:39.278880,15.05651644,.00017749,97.2839,196.0186,83.4948,276.6482,0,U,56356,999,17757,.87845317E-4,.1211E-4,0
STARLINK-5538,2023-058AS,2026-07-16T12:06:30.673152,15.05642107,.00020969,97.2834,196.1275,84.6414,275.5053,0,U,56357,999,17758,-.992038E-5,-.199E-5,0
STARLINK-5482,2023-058AT,2026-07-16T11:04:43.837536,15.05654183,.00018478,97.2842,194.9652,90.3518,269.7921,0,U,56358,999,17750,.2199812E-4,.261E-5,0
STARLINK-5551,2023-058AU,2026-07-16T10:44:48.413184,15.05645959,.00023126,97.2847,194.8346,94.7441,265.4050,0,U,56359,999,17749,.4436371E-5,.8E-7,0
STARLINK-5549,2023-058AV,2026-07-16T11:02:41.302464,15.05653714,.00024583,97.2844,196.0346,92.3697,267.7812,0,U,56360,999,17757,.2347508E-5,-.22E-6,0
STARLINK-5550,2023-058AW,2026-07-16T11:20:40.949952,15.05648361,.000177,97.2834,194.9503,90.6128,269.5302,0,U,56361,999,17750,.574538E-4,.773E-5,0
STARLINK-5972,2023-058AX,2026-07-16T11:10:40.794816,15.05648306,.00019844,97.2846,196.0276,98.7342,261.4110,0,U,56362,999,17757,.14648717E-4,.155E-5,0
STARLINK-6156,2023-061A,2026-07-16T00:51:50.114016,15.27582989,.0001169,43.0051,193.4930,307.7828,52.2918,0,U,56374,999,17747,-.4754144E-4,-.157E-4,0
STARLINK-6158,2023-061B,2026-07-16T09:10:09.111360,15.27576207,.00016517,43.0033,190.9329,272.2179,87.8483,0,U,56375,999,17643,.34244509E-4,.68E-5,0
STARLINK-6188,2023-061C,2026-07-16T01:04:34.118112,15.27578012,.00017335,43.0048,192.7029,292.3554,67.7114,0,U,56376,999,17638,-.4429204E-5,-.384E-5,0
STARLINK-6189,2023-061D,2026-07-16T01:01:04.706112,15.27577750,.0001193,43.0020,193.5365,274.2838,85.7877,0,U,56377,999,17637,.10845568E-4,.36E-6,0
STARLINK-6191,2023-061E,2026-07-16T01:13:49.100736,15.27575521,.00015509,43.0027,192.7453,270.6488,89.4185,0,U,56378,999,17638,.25583888E-4,.442E-5,0
STARLINK-6157,2023-061F,2026-07-16T07:39:41.929056,15.27574599,.00017066,43.0021,191.3261,274.8076,85.2581,0,U,56379,999,17752,.29301649E-4,.544E-5,0
STARLINK-6159,2023-061H,2026-07-16T08:29:39.486336,15.27575612,.00008367,43.0009,191.5755,267.8920,92.1836,0,U,56381,999,17642,.26208555E-4,.459E-5,0
STARLINK-6160,2023-061J,2026-07-16T11:30:33.771456,15.27569189,.00011365,43.0013,190.7961,273.0748,86.9974,0,U,56382,999,17644,-.38326218E-4,-.1316E-4,0
STARLINK-6166,2023-061K,2026-07-16T11:25:02.713440,15.27570020,.00014349,43.0014,190.7712,271.6786,88.3901,0,U,56383,999,17644,-.9926255E-5,-.535E-5,0
STARLINK-6153,2023-061L,2026-07-16T11:21:18.866592,15.27575654,.00012006,43.0011,190.7488,265.1892,94.8823,0,U,56384,999,17644,.15072952E-4,.153E-5,0
STARLINK-6173,2023-061M,2026-07-16T11:12:03.890016,15.27574223,.00014017,43.0014,190.7017,267.1181,92.9510,0,U,56385,999,17644,-.1102578E-3,-.3294E-4,0
STARLINK-5836,2023-061N,2026-07-16T11:32:25.043424,15.27575294,.00010856,43.0012,190.8058,265.9558,94.1170,0,U,56386,999,17644,.11416641E-4,.52E-6,0
STARLINK-6178,2023-061P,2026-07-16T01:15:40.285440,15.27575569,.00017111,43.0053,192.7606,279.5016,80.5643,0,U,56387,999,17638,.25026919E-4,.426E-5,0
STARLINK-6176,2023-061Q,2026-07-16T00:48:07.366176,15.27575446,.00011357,43.0029,193.4537,284.1730,75.8995,0,U,56388,999,17637,.583881E-6,-.246E-5,0
STARLINK-6145,2023-061R,2026-07-16T06:44:23.812224,15.27575293,.00010332,43.0014,191.8821,267.2733,92.8000,0,U,56389,999,17641,.19660506E-4,.279E-5,0
STARLINK-6298,2023-061T,2026-07-16T01:10:06.984480,15.27574754,.00015497,43.0046,192.7254,271.1838,88.8836,0,U,56391,999,17638,.25747954E-4,.446E-5,0
STARLINK-6301,2023-061U,2026-07-16T09:02:56.540256,15.27692847,.00011847,43.0003,180.4620,251.1371,108.9353,0,U,56392,999,17655,-.10265958E-2,-.28501E-3,0
STARLINK-6303,2023-061V,2026-07-16T00:07:25.401504,15.27575404,.00014021,43.0004,193.2539,263.1069,96.9624,0,U,56393,999,17637,.7926981E-5,-.44E-6,0
STARLINK-6305,2023-061W,2026-07-16T09:41:39.187392,15.27575594,.00014225,43.0015,179.8049,287.6609,72.4088,0,U,56394,999,17656,.58762197E-4,.1355E-4,0
STARLINK-6273,2023-061X,2026-07-16T00:03:56.894112,15.27575748,.00007743,43.0017,182.8064,289.5597,70.5171,0,U,56395,999,17720,-.1660137E-5,-.308E-5,0
STARLINK-6302,2023-061Y,2026-07-16T09:58:16.484448,15.27577133,.00023515,43.0048,179.8889,265.5301,94.5282,0,U,56396,999,17169,.34088868E-4,.676E-5,0
STARLINK-6271,2023-061Z,2026-07-16T06:09:26.936064,15.27610199,.00011444,42.9988,181.2707,301.8692,58.2049,0,U,56397,999,17653,.19977987E-3,.5244E-4,0
STARLINK-6288,2023-061AA,2026-07-16T06:55:30.970560,15.27578333,.00016109,43.0028,180.6539,270.0657,90.0010,0,U,56398,999,17654,.21272741E-4,.323E-5,0
STARLINK-6277,2023-061AB,2026-07-16T00:27:47.731680,15.27575966,.00015044,43.0030,182.0786,276.3684,83.6996,0,U,56399,999,17650,-.12046858E-4,-.594E-5,0
STARLINK-6267,2023-061AC,2026-07-16T08:35:12.272352,15.27693479,.00031533,43.0015,180.3166,289.1070,70.9440,0,U,56400,999,17655,-.78007007E-3,-.21743E-3,0
STARLINK-6287,2023-061AG,2026-07-16T07:32:31.441920,15.27568026,.00011458,43.0010,180.8359,276.2397,83.8324,0,U,56404,999,17654,.287701E-4,.529E-5,0
STARLINK-6285,2023-061AH,2026-07-16T07:04:46.430112,15.27582545,.0001609,43.0022,180.7002,265.6760,94.3908,0,U,56405,999,17654,-.18715523E-4,-.777E-5,0
STARLINK-6283,2023-061AJ,2026-07-16T00:02:05.890848,15.27575206,.00005876,43.0010,182.7838,240.7995,119.2798,0,U,56406,999,17649,.16421052E-4,.19E-5,0
STARLINK-6282,2023-061AK,2026-07-16T09:01:07.754880,15.27575318,.0001218,43.0018,180.4424,275.7458,84.3255,0,U,56407,999,17655,.20065765E-4,.29E-5,0
STARLINK-6289,2023-061AL,2026-07-16T00:18:32.469984,15.27568419,.00012789,43.0047,182.0074,272.0454,88.0252,0,U,56408,999,17650,-.46277342E-4,-.1535E-4,0
STARLINK-6241,2023-061AM,2026-07-16T07:36:13.759488,15.27575063,.00010444,43.0007,180.8596,260.1166,99.9568,0,U,56409,999,17654,.9111281E-5,-.11E-6,0
STARLINK-6281,2023-061AN,2026-07-16T00:09:16.903296,15.27578931,.00009263,43.0008,181.9653,262.0118,98.0629,0,U,56410,999,17650,-.390478E-6,-.273E-5,0
STARLINK-6279,2023-061AP,2026-07-16T07:41:48.829056,15.27551852,.00001976,42.9995,180.8847,162.4547,197.6312,0,U,56411,999,17654,-.10728218E-3,-.321E-4,0
STARLINK-6278,2023-061AQ,2026-07-16T00:29:38.245920,15.27576702,.00019089,43.0040,182.0790,277.6108,82.4527,0,U,56412,999,17650,.657406E-5,-.82E-6,0
STARLINK-6258,2023-061AR,2026-07-16T06:24:16.414560,15.27572710,.0001151,43.0021,181.3408,265.4517,94.6203,0,U,56413,999,17653,.4683399E-5,-.133E-5,0
STARLINK-5136,2023-061AS,2026-07-16T10:26:02.152896,15.27574472,.0001066,43.0016,180.0176,265.5716,94.5014,0,U,56414,999,17656,.10655836E-4,.31E-6,0
STARLINK-6260,2023-061AU,2026-07-16T09:59:38.732928,15.27576056,.000108,43.0017,172.8448,276.3603,83.7126,0,U,56416,999,17664,.16775035E-4,.2E-5,0
STARLINK-6261,2023-061AV,2026-07-15T07:25:01.980480,15.27568028,.00014987,43.0022,186.1946,264.2353,95.8328,0,U,56417,999,17639,.12433023E-4,.8E-6,0
STARLINK-5356,2023-061AW,2026-07-16T07:39:13.754016,15.27575155,.00011097,43.0027,172.9687,278.7559,81.3167,0,U,56418,999,17663,.5934923E-5,-.99E-6,0
STARLINK-5350,2023-061AX,2026-07-16T07:23:16.693440,15.27578041,.00008261,43.0000,180.7875,268.1097,91.9661,0,U,56419,999,17654,.58206571E-4,.134E-4,0
STARLINK-6272,2023-061AY,2026-07-15T23:59:32.940384,15.27574309,.00016665,43.0028,174.8746,276.2633,83.8029,0,U,56420,999,17658,.238097E-4,.393E-5,0
STARLINK-6270,2023-061AZ,2026-07-16T05:05:21.957216,15.27563635,.00015883,43.0036,177.2989,268.5882,91.4787,0,U,56421,999,17657,.376895E-4,.775E-5,0
STARLINK-6236,2023-061BA,2026-07-16T04:56:49.304544,15.27576616,.00015244,43.0014,173.8415,266.8350,93.2327,0,U,56422,999,17661,.1833414E-4,.242E-5,0
STARLINK-6239,2023-061BB,2026-07-16T00:05:06.319968,15.27573263,.00014079,43.0034,174.9047,270.9478,89.1213,0,U,56423,999,17658,.15399009E-4,.162E-5,0
STARLINK-6242,2023-061BC,2026-07-16T09:50:23.377056,15.27579854,.00013398,43.0022,172.7933,270.6505,89.4193,0,U,56424,999,17664,.46805992E-4,.1026E-4,0
STARLINK-6224,2023-061BD,2026-07-16T06:36:31.883328,15.27575860,.00014173,43.0016,173.5011,266.7220,93.3470,0,U,56425,999,17662,.23876056E-4,.395E-5,0
STARLINK-5352,2023-061BE,2026-07-16T06:58:43.937184,15.27585379,.00014752,43.0021,173.6038,280.0316,80.0369,0,U,56426,999,17662,.20611126E-4,.305E-5,0
